[{"OBJECT_NAME":"STARLINK-2702","OBJECT_ID":"2021-040P","EPOCH":"2026-03-09T12:38:20.436288","MEAN_MOTION":15.30197658,"ECCENTRICITY":0.00013642,"INCLINATION":53.1591,"RA_OF_ASC_NODE":178.9038,"ARG_OF_PERICENTER":67.135,"MEAN_ANOMALY":292.9794,"EPHEMERIS_TYPE":0,"CLASSIFICATION_TYPE":"U","NORAD_CAT_ID":48441,"ELEMENT_SET_NO":999,"REV_AT_EPOCH":26665,"BSTAR":0.00033853961,"MEAN_MOTION_DOT":9.68e-5,"MEAN_MOTION_DDOT":0},{"OBJECT_NAME":"HERMES-3","OBJECT_ID":"2025-052BR","EPOCH":"2026-03-09T22:30:01.073952","MEAN_MOTION":15.30039786,"ECCENTRICITY":0.00079928,"INCLINATION":97.3987,"RA_OF_ASC_NODE":324.6131,"ARG_OF_PERICENTER":112.9583,"MEAN_ANOMALY":247.2502,"EPHEMERIS_TYPE":0,"CLASSIFICATION_TYPE":"U","NORAD_CAT_ID":63835,"ELEMENT_SET_NO":999,"REV_AT_EPOCH":5486,"BSTAR":0.0006995793,"MEAN_MOTION_DOT":0.00020316,"MEAN_MOTION_DDOT":0}]
